NORAD_CAT_ID,OBJECT_NAME,OBJECT_TYPE,EPOCH,MEAN_MOTION,ECCENTRICITY,INCLINATION,RA_OF_ASC_NODE,ARG_OF_PERICENTER,MEAN_ANOMALY,BSTAR,MEAN_MOTION_DOT,MEAN_MOTION_DDOT,TLE_LINE0,TLE_LINE1,TLE_LINE2,SEMIMAJOR_AXIS,PERIOD,APOGEE,PERIGEE,DECAYED
55930.0,STARLINK-5896,PAYLOAD,2024-02-01 10:41:35,14.99132683,0.0002987,69.9998,58.986,266.0202,94.0616,0.00033093,3.94e-05,0.0,0 STARLINK-5896,1 55930U 23037S   24032.44555256  .00003940  00000-0  33093-3 0  9991,2 55930  69.9998  58.9860 0002987 266.0202  94.0616 14.99132683 49054,6947.712,96.056,571.652,567.501,0.0
55930.0,STARLINK-5896,PAYLOAD,2024-02-02 04:18:29,14.99146556,0.0003122,69.9994,57.1326,268.7156,91.3646,8.5173e-05,9.44e-06,0.0,0 STARLINK-5896,1 55930U 23037S   24033.17951378  .00000944  00000-0  85173-4 0  9995,2 55930  69.9994  57.1326 0003122 268.7156  91.3646 14.99146556 49504,6947.669,96.055,571.703,567.365,0.0
55930.0,STARLINK-5896,PAYLOAD,2024-02-02 12:18:54,14.99147941,0.0003092,69.9995,56.2903,267.9851,92.0955,9.1026e-05,1.016e-05,0.0,0 STARLINK-5896,1 55930U 23037S   24033.51313060  .00001016  00000-0  91026-4 0  9998,2 55930  69.9995  56.2903 0003092 267.9851  92.0955 14.99147941 49213,6947.665,96.055,571.678,567.381,0.0
55930.0,STARLINK-5896,PAYLOAD,2024-02-03 04:19:44,14.99146925,0.0002886,69.9999,54.6065,261.7424,98.3409,-4.9938e-05,-7.02e-06,0.0,0 STARLINK-5896,1 55930U 23037S   24034.18037063 -.00000702  00000-0 -49938-4 0  9996,2 55930  69.9999  54.6065 0002886 261.7424  98.3409 14.99146925 49658,6947.668,96.055,571.538,567.528,0.0
55930.0,STARLINK-5896,PAYLOAD,2024-02-03 10:44:03,14.99145176,0.0002914,69.9999,53.9326,262.3039,97.779,-6.6235e-05,-9.01e-06,0.0,0 STARLINK-5896,1 55930U 23037S   24034.44726686 -.00000901  00000-0 -66235-4 0  9991,2 55930  69.9999  53.9326 0002914 262.3039  97.7790 14.99145176 49351,6947.673,96.055,571.563,567.514,0.0
55930.0,STARLINK-5896,PAYLOAD,2024-02-03 18:44:28,14.99145036,0.0003038,69.9995,53.0889,270.5579,89.5232,-7.2576e-05,-9.78e-06,0.0,0 STARLINK-5896,1 55930U 23037S   24034.78088575 -.00000978  00000-0 -72576-4 0  9995,2 55930  69.9995  53.0889 0003038 270.5579  89.5232 14.99145036 49401,6947.674,96.055,571.649,567.428,0.0
55930.0,STARLINK-5896,PAYLOAD,2024-02-04 04:20:58,14.99142441,0.0003042,69.9994,52.0779,269.6905,90.3906,-6.5339e-05,-8.9e-06,0.0,0 STARLINK-5896,1 55930U 23037S   24035.18122941 -.00000890  00000-0 -65339-4 0  9998,2 55930  69.9994  52.0779 0003042 269.6905  90.3906 14.99142441 49803,6947.682,96.055,571.66,567.433,0.0
55930.0,STARLINK-5896,PAYLOAD,2024-02-04 10:45:17,14.99143058,0.0003037,69.9995,51.4043,270.2513,89.8298,-5.0856e-05,-7.13e-06,0.0,0 STARLINK-5896,1 55930U 23037S   24035.44812409 -.00000713  00000-0 -50856-4 0  9994,2 55930  69.9995  51.4043 0003037 270.2513  89.8298 14.99143058 49507,6947.68,96.055,571.655,567.435,0.0
55930.0,STARLINK-5896,PAYLOAD,2024-02-05 04:22:12,14.99136609,0.0002876,69.9996,49.5513,260.9574,99.126,-2.8931e-05,-4.46e-06,0.0,0 STARLINK-5896,1 55930U 23037S   24036.18209014 -.00000446  00000-0 -28931-4 0  9990,2 55930  69.9996  49.5513 0002876 260.9574  99.1260 14.99136609 49957,6947.7,96.055,571.563,567.566,0.0
55930.0,STARLINK-5896,PAYLOAD,2024-02-05 10:46:32,14.99140671,0.0003068,69.9996,48.8776,271.0628,89.018,2.0007e-05,1.5e-06,0.0,0 STARLINK-5896,1 55930U 23037S   24036.44898262  .00000150  00000-0  20007-4 0  9994,2 55930  69.9996  48.8776 0003068 271.0628  89.0180 14.99140671 49657,6947.687,96.055,571.684,567.421,0.0
55930.0,STARLINK-5896,PAYLOAD,2024-02-06 04:23:26,14.99136503,0.0003201,69.9997,47.0253,269.5191,90.5602,8.525e-05,9.45e-06,0.0,0 STARLINK-5896,1 55930U 23037S   24037.18294588  .00000945  00000-0  85250-4 0  9990,2 55930  69.9997  47.0253 0003201 269.5191  90.5602 14.99136503 50102,6947.7,96.055,571.789,567.341,0.0
55930.0,STARLINK-5896,PAYLOAD,2024-02-06 10:47:46,14.99143772,0.0003,69.9998,46.3515,269.5801,90.5015,6.397e-05,6.86e-06,0.0,0 STARLINK-5896,1 55930U 23037S   24037.44983844  .00000686  00000-0  63970-4 0  9996,2 55930  69.9998  46.3515 0003000 269.5801  90.5015 14.99143772 49800,6947.678,96.055,571.627,567.458,0.0
55930.0,STARLINK-5896,PAYLOAD,2024-02-07 04:24:39,14.99268215,0.0004619,70.0001,44.4987,224.2162,135.8629,-0.0020919,-0.00025579,0.0,0 STARLINK-5896,1 55930U 23037S   24038.18378650 -.00025579  00000-0 -20919-2 0  9995,2 55930  70.0001  44.4987 0004619 224.2162 135.8629 14.99268215 50250,6947.293,96.047,572.367,565.949,0.0
55930.0,STARLINK-5896,PAYLOAD,2024-02-07 10:49:00,14.99121025,0.0003961,70.0002,43.8251,205.1672,154.9295,0.00034867,4.155e-05,0.0,0 STARLINK-5896,1 55930U 23037S   24038.45070366  .00004155  00000-0  34867-3 0  9991,2 55930  70.0002  43.8251 0003961 205.1672 154.9295 14.99121025 50293,6947.748,96.056,572.365,566.861,0.0
55930.0,STARLINK-5896,PAYLOAD,2024-02-07 17:13:20,14.99136755,0.0002767,70.0003,43.1512,269.7676,90.3167,-7.355e-06,-1.83e-06,0.0,0 STARLINK-5896,1 55930U 23037S   24038.71760023 -.00000183  00000-0 -73550-5 0  9999,2 55930  70.0003  43.1512 0002767 269.7676  90.3167 14.99136755 50332,6947.699,96.055,571.487,567.642,0.0
55930.0,STARLINK-5896,PAYLOAD,2024-02-08 09:14:10,14.99135701,0.000271,70.0005,41.4666,266.1175,93.9674,-6.9884e-05,-9.45e-06,0.0,0 STARLINK-5896,1 55930U 23037S   24039.38484284 -.00000945  00000-0 -69884-4 0  9995,2 55930  70.0005  41.4666 0002710 266.1175  93.9674 14.99135701 50093,6947.702,96.055,571.45,567.685,0.0
55930.0,STARLINK-5896,PAYLOAD,2024-02-09 04:27:09,14.99138574,0.0002822,70.0003,39.4453,267.0624,93.0213,-1.2382e-05,-2.45e-06,0.0,0 STARLINK-5896,1 55930U 23037S   24040.18552767 -.00000245  00000-0 -12382-4 0  9991,2 55930  70.0003  39.4453 0002822 267.0624  93.0213 14.99138574 50557,6947.694,96.055,571.519,567.598,0.0
55930.0,STARLINK-5896,PAYLOAD,2024-02-09 09:15:24,14.99140541,0.0002841,70.0002,38.9399,267.7643,92.3192,8.2634e-06,7e-08,0.0,0 STARLINK-5896,1 55930U 23037S   24040.38569776  .00000007  00000-0  82634-5 0  9993,2 55930  70.0002  38.9399 0002841 267.7643  92.3192 14.99140541 50249,6947.687,96.055,571.526,567.579,0.0
55930.0,STARLINK-5896,PAYLOAD,2024-02-10 09:16:38,14.9913639,0.0002875,70.0001,36.4127,267.3136,92.7695,4.9976e-05,5.15e-06,0.0,0 STARLINK-5896,1 55930U 23037S   24041.38656023  .00000515  00000-0  49976-4 0  9991,2 55930  70.0001  36.4127 0002875 267.3136  92.7695 14.99136390 50733,6947.7,96.055,571.563,567.568,0.0
55930.0,STARLINK-5896,PAYLOAD,2024-02-11 09:17:52,14.99147052,0.0002872,70.0003,33.8864,268.1259,91.9571,8.0408e-05,8.86e-06,0.0,0 STARLINK-5896,1 55930U 23037S   24042.38741128  .00000886  00000-0  80408-4 0  9999,2 55930  70.0003  33.8864 0002872 268.1259  91.9571 14.99147052 50883,6947.667,96.055,571.528,567.537,0.0
55930.0,STARLINK-5896,PAYLOAD,2024-02-12 02:54:47,14.99139359,0.0002751,70.0009,32.0341,266.7607,93.3238,2.5944e-05,2.22e-06,0.0,0 STARLINK-5896,1 55930U 23037S   24043.12137984  .00000222  00000-0  25944-4 0  9999,2 55930  70.0009  32.0341 0002751 266.7607  93.3238 14.99139359 50996,6947.691,96.055,571.467,567.645,0.0
55930.0,STARLINK-5896,PAYLOAD,2024-02-12 09:19:06,14.99140848,0.0002739,70.0009,31.3605,266.6565,93.4281,4.0066e-05,3.95e-06,0.0,0 STARLINK-5896,1 55930U 23037S   24043.38827439  .00000395  00000-0  40066-4 0  9991,2 55930  70.0009  31.3605 0002739 266.6565  93.4281 14.99140848 50690,6947.687,96.055,571.455,567.649,0.0
55930.0,STARLINK-5896,PAYLOAD,2024-02-13 02:56:01,14.99138392,0.0002573,70.0015,29.5087,259.7237,100.3632,-6.3606e-05,-8.69e-06,0.0,0 STARLINK-5896,1 55930U 23037S   24044.12224214 -.00000869  00000-0 -63606-4 0  9999,2 55930  70.0015  29.5087 0002573 259.7237 100.3632 14.99138392 51145,6947.694,96.055,571.347,567.771,0.0
55930.0,STARLINK-5896,PAYLOAD,2024-02-13 07:44:16,14.99138147,0.0002574,70.0015,29.0032,258.8806,101.2064,-6.0751e-05,-8.34e-06,0.0,0 STARLINK-5896,1 55930U 23037S   24044.32241436 -.00000834  00000-0 -60751-4 0  9996,2 55930  70.0015  29.0032 0002574 258.8806 101.2064 14.99138147 50835,6947.695,96.055,571.348,567.772,0.0
55930.0,STARLINK-5896,PAYLOAD,2024-02-13 15:44:41,14.99134662,0.0002542,70.0016,28.1601,264.9506,95.1363,-8.276e-05,-1.102e-05,0.0,0 STARLINK-5896,1 55930U 23037S   24044.65603809 -.00001102  00000-0 -82760-4 0  9991,2 55930  70.0016  28.1601 0002542 264.9506  95.1363 14.99134662 50884,6947.706,96.055,571.337,567.805,0.0
55930.0,STARLINK-5896,PAYLOAD,2024-02-14 04:33:21,14.99136598,0.0002937,70.0003,26.811,269.2342,90.8481,-9.4088e-06,-2.08e-06,0.0,0 STARLINK-5896,1 55930U 23037S   24045.18982671 -.00000208  00000-0 -94088-5 0  9990,2 55930  70.0003  26.8110 0002937 269.2342  90.8481 14.99136598 51305,6947.7,96.055,571.605,567.524,0.0
55930.0,STARLINK-5896,PAYLOAD,2024-02-14 09:21:36,14.99135153,0.0002859,70.0006,26.3058,265.0531,95.0302,-6.8656e-06,-1.77e-06,0.0,0 STARLINK-5896,1 55930U 23037S   24045.39000004 -.00000177  00000-0 -68656-5 0  9991,2 55930  70.0006  26.3058 0002859 265.0531  95.0302 14.99135153 50990,6947.704,96.055,571.555,567.583,0.0
55930.0,STARLINK-5896,PAYLOAD,2024-02-14 15:45:55,14.99135919,0.0002977,70.0008,25.6321,265.4244,94.6575,-4.623e-05,-6.57e-06,0.0,0 STARLINK-5896,1 55930U 23037S   24045.65689704 -.00000657  00000-0 -46230-4 0  9996,2 55930  70.0008  25.6321 0002977 265.4244  94.6575 14.99135919 51036,6947.702,96.055,571.635,567.498,0.0
55930.0,STARLINK-5896,PAYLOAD,2024-02-15 04:34:35,14.99135075,0.0002989,70.0007,24.2846,267.6655,92.4162,4.2632e-05,4.26e-06,0.0,0 STARLINK-5896,1 55930U 23037S   24046.19068892  .00000426  00000-0  42632-4 0  9999,2 55930  70.0007  24.2846 0002989 267.6655  92.4162 14.99135075 51452,6947.704,96.055,571.646,567.493,0.0
55930.0,STARLINK-5896,PAYLOAD,2024-02-15 07:46:45,14.99138341,0.000295,70.0008,23.9477,268.1049,91.9772,7.8203e-05,8.59e-06,0.0,0 STARLINK-5896,1 55930U 23037S   24046.32413419  .00000859  00000-0  78203-4 0  9996,2 55930  70.0008  23.9477 0002950 268.1049  91.9772 14.99138341 51135,6947.694,96.055,571.609,567.51,0.0
